STARLINK-5162           
1 54184U 22141AD  26068.10249375  .00000685  00000+0  61084-4 0  9996
2 54184  53.2197   7.1175 0001526  85.3398 274.7768 15.08852000185769
LEMUR-2-STELLA          
1 60533U 24149BT  26068.72657350  .00013685  00000+0  85776-3 0  9992
2 60533  97.6764 150.9122 0001299  95.1117 265.0260 15.09464064 85488
