[{"OBJECT_NAME":"STARLINK-5162","OBJECT_ID":"2022-141AD","EPOCH":"2026-03-09T02:27:35.460000","MEAN_MOTION":15.08852,"ECCENTRICITY":0.0001526,"INCLINATION":53.2197,"RA_OF_ASC_NODE":7.1175,"ARG_OF_PERICENTER":85.3398,"MEAN_ANOMALY":274.7768,"EPHEMERIS_TYPE":0,"CLASSIFICATION_TYPE":"U","NORAD_CAT_ID":54184,"ELEMENT_SET_NO":999,"REV_AT_EPOCH":18576,"BSTAR":6.1083839e-5,"MEAN_MOTION_DOT":6.85e-6,"MEAN_MOTION_DDOT":0},{"OBJECT_NAME":"LEMUR-2-STELLA","OBJECT_ID":"2024-149BT","EPOCH":"2026-03-09T17:26:15.951264","MEAN_MOTION":15.09464064,"ECCENTRICITY":0.0001299,"INCLINATION":97.6764,"RA_OF_ASC_NODE":150.9122,"ARG_OF_PERICENTER":95.1117,"MEAN_ANOMALY":265.026,"EPHEMERIS_TYPE":0,"CLASSIFICATION_TYPE":"U","NORAD_CAT_ID":60533,"ELEMENT_SET_NO":999,"REV_AT_EPOCH":8548,"BSTAR":0.00085776432,"MEAN_MOTION_DOT":0.00013685,"MEAN_MOTION_DDOT":0}]
